FENGYUN 1C DEB          
1 38492U 99025ESB 17345.61260698  .00002013  00000-0  17506-2 0  9996
2 38492  98.6160 289.7406 0288951  88.2363 275.1854 13.69606220353072
